XRISM                   
1 57800U 23137A   26090.49708295  .00007486  00000+0  42232-3 0  9997
2 57800  31.0015 142.5846 0007915 258.4497 101.5253 15.11758652141096
ACS3                    
1 59588U 24077B   26090.52326843  .00025567  00000+0  20035-1 0  9990
2 59588  97.1961  26.7279 0073109  27.1683 333.3277 13.90628156 97230
SZ-21 MODULE            
1 66515U 25246C   26090.32756337  .00047143  00000+0  37674-3 0  9993
2 66515  41.4738  69.9930 0002265 217.1481 142.9205 15.70267217 21472
